DMSP 5D-3 F16 (USA 172) 
1 28054U 03048A   26063.12250104  .00000206  00000+0  13112-3 0  9994
2 28054  98.9997  86.2076 0008201  86.4753 346.0215 14.14459609154638
METEOSAT-9 (MSG-2)      
1 28912U 05049B   26063.09473406  .00000115  00000+0  00000+0 0  9995
2 28912   9.1243  55.1851 0001796 221.3910 325.1022  1.00277093  5941
DMSP 5D-3 F17 (USA 191) 
1 29522U 06050A   26063.09169883  .00000249  00000+0  15124-3 0  9992
2 29522  98.7412  71.8007 0010079   2.9798 357.1434 14.14961122997551
FENGYUN 3A              
1 32958U 08026A   26062.81450663  .00000156  00000+0  94661-4 0  9993
2 32958  98.6791   5.6746 0009812  73.3930 286.8323 14.19544298920451
GOES 14                 
1 35491U 09033A   26063.12567421  .00000116  00000+0  00000+0 0  9998
2 35491   1.4182  84.4254 0002238 297.9403  26.7353  1.00124205  5530
DMSP 5D-3 F18 (USA 210) 
1 35951U 09057A   26063.12555789  .00000358  00000+0  20870-3 0  9998
2 35951  98.8955  44.1738 0010813 184.1745 175.9340 14.14831808844732
EWS-G2 (GOES 15)        
1 36411U 10008A   26063.09828742  .00000009  00000+0  00000+0 0  9998
2 36411   1.0083  85.1554 0001823  21.0559 154.5075  1.00269362 58585
COMS 1                  
1 36744U 10032A   26062.96839000 -.00000355  00000+0  00000+0 0  9993
2 36744   4.5347  76.8758 0001188 278.6079 283.0302  1.00272871 50031
FENGYUN 3B              
1 37214U 10059A   26063.21854266 -.00000145  00000+0 -51607-4 0  9997
2 37214  98.9778 108.7216 0022994 122.9826 316.3498 14.14814640792586
SUOMI NPP               
1 37849U 11061A   26063.17493429  .00000130  00000+0  82549-4 0  9991
2 37849  98.7865   4.8216 0000420 284.0023  76.1106 14.19541755743548
METEOSAT-10 (MSG-3)     
1 38552U 12035B   26063.15704770 -.00000014  00000+0  00000+0 0  9996
2 38552   4.4231  61.4646 0002500 294.6092 222.6503  1.00277354 49805
METOP-B                 
1 38771U 12049A   26063.16571179  .00000159  00000+0  92663-4 0  9990
2 38771  98.6653 116.6935 0001214 296.6286  63.4767 14.21442583698340
INSAT-3D                
1 39216U 13038B   26062.96873667 -.00000351  00000+0  00000+0 0  9992
2 39216   1.6544  83.9201 0001772 240.8778 315.1496  1.00273595 46022
FENGYUN 3C              
1 39260U 13052A   26063.16319727  .00000152  00000+0  98567-4 0  9990
2 39260  98.4882  41.9182 0014092 329.8687  30.1676 14.15726877643706
METEOR-M 2              
1 40069U 14037A   26063.12242422  .00000522  00000+0  25796-3 0  9990
2 40069  98.5011  42.6388 0005702 354.2740   5.8371 14.21427197604399
HIMAWARI-8              
1 40267U 14060A   26062.97090335 -.00000289  00000+0  00000+0 0  9990
2 40267   0.0335 250.8339 0000782  74.2519 326.8113  1.00272003 41708
FENGYUN 2G              
1 40367U 14090A   26063.03406712 -.00000313  00000+0  00000+0 0  9990
2 40367   5.3731  74.0908 0001928 152.8974  46.7351  1.00274636 40947
