[{"OBJECT_NAME":"DMSP 5D-3 F16 (USA 172)","OBJECT_ID":"2003-048A","EPOCH":"2026-03-04T02:56:24.089856","MEAN_MOTION":14.14459609,"ECCENTRICITY":0.0008201,"INCLINATION":98.9997,"RA_OF_ASC_NODE":86.2076,"ARG_OF_PERICENTER":86.4753,"MEAN_ANOMALY":346.0215,"EPHEMERIS_TYPE":0,"CLASSIFICATION_TYPE":"U","NORAD_CAT_ID":28054,"ELEMENT_SET_NO":999,"REV_AT_EPOCH":15463,"BSTAR":0.00013112,"MEAN_MOTION_DOT":2.06e-6,"MEAN_MOTION_DDOT":0},{"OBJECT_NAME":"METEOSAT-9 (MSG-2)","OBJECT_ID":"2005-049B","EPOCH":"2026-03-04T02:16:25.022784","MEAN_MOTION":1.00277093,"ECCENTRICITY":0.0001796,"INCLINATION":9.1243,"RA_OF_ASC_NODE":55.1851,"ARG_OF_PERICENTER":221.391,"MEAN_ANOMALY":325.1022,"EPHEMERIS_TYPE":0,"CLASSIFICATION_TYPE":"U","NORAD_CAT_ID":28912,"ELEMENT_SET_NO":999,"REV_AT_EPOCH":594,"BSTAR":0,"MEAN_MOTION_DOT":1.15e-6,"MEAN_MOTION_DDOT":0},{"OBJECT_NAME":"DMSP 5D-3 F17 (USA 191)","OBJECT_ID":"2006-050A","EPOCH":"2026-03-04T02:12:02.778912","MEAN_MOTION":14.14961122,"ECCENTRICITY":0.0010079,"INCLINATION":98.7412,"RA_OF_ASC_NODE":71.8007,"ARG_OF_PERICENTER":2.9798,"MEAN_ANOMALY":357.1434,"EPHEMERIS_TYPE":0,"CLASSIFICATION_TYPE":"U","NORAD_CAT_ID":29522,"ELEMENT_SET_NO":999,"REV_AT_EPOCH":99755,"BSTAR":0.00015124,"MEAN_MOTION_DOT":2.49e-6,"MEAN_MOTION_DDOT":0},{"OBJECT_NAME":"FENGYUN 3A","OBJECT_ID":"2008-026A","EPOCH":"2026-03-03T19:32:53.372832","MEAN_MOTION":14.19544298,"ECCENTRICITY":0.0009812,"INCLINATION":98.6791,"RA_OF_ASC_NODE":5.6746,"ARG_OF_PERICENTER":73.393,"MEAN_ANOMALY":286.8323,"EPHEMERIS_TYPE":0,"CLASSIFICATION_TYPE":"U","NORAD_CAT_ID":32958,"ELEMENT_SET_NO":999,"REV_AT_EPOCH":92045,"BSTAR":9.4661e-5,"MEAN_MOTION_DOT":1.56e-6,"MEAN_MOTION_DDOT":0},{"OBJECT_NAME":"GOES 14","OBJECT_ID":"2009-033A","EPOCH":"2026-03-04T03:00:58.251744","MEAN_MOTION":1.00124205,"ECCENTRICITY":0.0002238,"INCLINATION":1.4182,"RA_OF_ASC_NODE":84.4254,"ARG_OF_PERICENTER":297.9403,"MEAN_ANOMALY":26.7353,"EPHEMERIS_TYPE":0,"CLASSIFICATION_TYPE":"U","NORAD_CAT_ID":35491,"ELEMENT_SET_NO":999,"REV_AT_EPOCH":553,"BSTAR":0,"MEAN_MOTION_DOT":1.16e-6,"MEAN_MOTION_DDOT":0},{"OBJECT_NAME":"DMSP 5D-3 F18 (USA 210)","OBJECT_ID":"2009-057A","EPOCH":"2026-03-04T03:00:48.201696","MEAN_MOTION":14.14831808,"ECCENTRICITY":0.0010813,"INCLINATION":98.8955,"RA_OF_ASC_NODE":44.1738,"ARG_OF_PERICENTER":184.1745,"MEAN_ANOMALY":175.934,"EPHEMERIS_TYPE":0,"CLASSIFICATION_TYPE":"U","NORAD_CAT_ID":35951,"ELEMENT_SET_NO":999,"REV_AT_EPOCH":84473,"BSTAR":0.0002087,"MEAN_MOTION_DOT":3.58e-6,"MEAN_MOTION_DDOT":0},{"OBJECT_NAME":"EWS-G2 (GOES 15)","OBJECT_ID":"2010-008A","EPOCH":"2026-03-04T02:21:32.033088","MEAN_MOTION":1.00269362,"ECCENTRICITY":0.0001823,"INCLINATION":1.0083,"RA_OF_ASC_NODE":85.1554,"ARG_OF_PERICENTER":21.0559,"MEAN_ANOMALY":154.5075,"EPHEMERIS_TYPE":0,"CLASSIFICATION_TYPE":"U","NORAD_CAT_ID":36411,"ELEMENT_SET_NO":999,"REV_AT_EPOCH":5858,"BSTAR":0,"MEAN_MOTION_DOT":9.0e-8,"MEAN_MOTION_DDOT":0},{"OBJECT_NAME":"COMS 1","OBJECT_ID":"2010-032A","EPOCH":"2026-03-03T23:14:28.896000","MEAN_MOTION":1.00272871,"ECCENTRICITY":0.0001188,"INCLINATION":4.5347,"RA_OF_ASC_NODE":76.8758,"ARG_OF_PERICENTER":278.6079,"MEAN_ANOMALY":283.0302,"EPHEMERIS_TYPE":0,"CLASSIFICATION_TYPE":"U","NORAD_CAT_ID":36744,"ELEMENT_SET_NO":999,"REV_AT_EPOCH":5003,"BSTAR":0,"MEAN_MOTION_DOT":-3.55e-6,"MEAN_MOTION_DDOT":0},{"OBJECT_NAME":"FENGYUN 3B","OBJECT_ID":"2010-059A","EPOCH":"2026-03-04T05:14:42.085824","MEAN_MOTION":14.1481464,"ECCENTRICITY":0.0022994,"INCLINATION":98.9778,"RA_OF_ASC_NODE":108.7216,"ARG_OF_PERICENTER":122.9826,"MEAN_ANOMALY":316.3498,"EPHEMERIS_TYPE":0,"CLASSIFICATION_TYPE":"U","NORAD_CAT_ID":37214,"ELEMENT_SET_NO":999,"REV_AT_EPOCH":79258,"BSTAR":-5.1607e-5,"MEAN_MOTION_DOT":-1.45e-6,"MEAN_MOTION_DDOT":0},{"OBJECT_NAME":"SUOMI NPP","OBJECT_ID":"2011-061A","EPOCH":"2026-03-04T04:11:54.322656","MEAN_MOTION":14.19541755,"ECCENTRICITY":4.2e-5,"INCLINATION":98.7865,"RA_OF_ASC_NODE":4.8216,"ARG_OF_PERICENTER":284.0023,"MEAN_ANOMALY":76.1106,"EPHEMERIS_TYPE":0,"CLASSIFICATION_TYPE":"U","NORAD_CAT_ID":37849,"ELEMENT_SET_NO":999,"REV_AT_EPOCH":74354,"BSTAR":8.2549e-5,"MEAN_MOTION_DOT":1.3e-6,"MEAN_MOTION_DDOT":0},{"OBJECT_NAME":"METEOSAT-10 (MSG-3)","OBJECT_ID":"2012-035B","EPOCH":"2026-03-04T03:46:08.921280","MEAN_MOTION":1.00277354,"ECCENTRICITY":0.00025,"INCLINATION":4.4231,"RA_OF_ASC_NODE":61.4646,"ARG_OF_PERICENTER":294.6092,"MEAN_ANOMALY":222.6503,"EPHEMERIS_TYPE":0,"CLASSIFICATION_TYPE":"U","NORAD_CAT_ID":38552,"ELEMENT_SET_NO":999,"REV_AT_EPOCH":4980,"BSTAR":0,"MEAN_MOTION_DOT":-1.4e-7,"MEAN_MOTION_DDOT":0},{"OBJECT_NAME":"METOP-B","OBJECT_ID":"2012-049A","EPOCH":"2026-03-04T03:58:37.498656","MEAN_MOTION":14.21442583,"ECCENTRICITY":0.0001214,"INCLINATION":98.6653,"RA_OF_ASC_NODE":116.6935,"ARG_OF_PERICENTER":296.6286,"MEAN_ANOMALY":63.4767,"EPHEMERIS_TYPE":0,"CLASSIFICATION_TYPE":"U","NORAD_CAT_ID":38771,"ELEMENT_SET_NO":999,"REV_AT_EPOCH":69834,"BSTAR":9.2663e-5,"MEAN_MOTION_DOT":1.59e-6,"MEAN_MOTION_DDOT":0},{"OBJECT_NAME":"INSAT-3D","OBJECT_ID":"2013-038B","EPOCH":"2026-03-03T23:14:58.848288","MEAN_MOTION":1.00273595,"ECCENTRICITY":0.0001772,"INCLINATION":1.6544,"RA_OF_ASC_NODE":83.9201,"ARG_OF_PERICENTER":240.8778,"MEAN_ANOMALY":315.1496,"EPHEMERIS_TYPE":0,"CLASSIFICATION_TYPE":"U","NORAD_CAT_ID":39216,"ELEMENT_SET_NO":999,"REV_AT_EPOCH":4602,"BSTAR":0,"MEAN_MOTION_DOT":-3.51e-6,"MEAN_MOTION_DDOT":0},{"OBJECT_NAME":"FENGYUN 3C","OBJECT_ID":"2013-052A","EPOCH":"2026-03-04T03:55:00.244128","MEAN_MOTION":14.15726877,"ECCENTRICITY":0.0014092,"INCLINATION":98.4882,"RA_OF_ASC_NODE":41.9182,"ARG_OF_PERICENTER":329.8687,"MEAN_ANOMALY":30.1676,"EPHEMERIS_TYPE":0,"CLASSIFICATION_TYPE":"U","NORAD_CAT_ID":39260,"ELEMENT_SET_NO":999,"REV_AT_EPOCH":64370,"BSTAR":9.8567e-5,"MEAN_MOTION_DOT":1.52e-6,"MEAN_MOTION_DDOT":0},{"OBJECT_NAME":"METEOR-M 2","OBJECT_ID":"2014-037A","EPOCH":"2026-03-04T02:56:17.452608","MEAN_MOTION":14.21427197,"ECCENTRICITY":0.0005702,"INCLINATION":98.5011,"RA_OF_ASC_NODE":42.6388,"ARG_OF_PERICENTER":354.274,"MEAN_ANOMALY":5.8371,"EPHEMERIS_TYPE":0,"CLASSIFICATION_TYPE":"U","NORAD_CAT_ID":40069,"ELEMENT_SET_NO":999,"REV_AT_EPOCH":60439,"BSTAR":0.00025796,"MEAN_MOTION_DOT":5.22e-6,"MEAN_MOTION_DDOT":0},{"OBJECT_NAME":"HIMAWARI-8","OBJECT_ID":"2014-060A","EPOCH":"2026-03-03T23:18:06.049440","MEAN_MOTION":1.00272003,"ECCENTRICITY":7.82e-5,"INCLINATION":0.0335,"RA_OF_ASC_NODE":250.8339,"ARG_OF_PERICENTER":74.2519,"MEAN_ANOMALY":326.8113,"EPHEMERIS_TYPE":0,"CLASSIFICATION_TYPE":"U","NORAD_CAT_ID":40267,"ELEMENT_SET_NO":999,"REV_AT_EPOCH":4170,"BSTAR":0,"MEAN_MOTION_DOT":-2.89e-6,"MEAN_MOTION_DDOT":0},{"OBJECT_NAME":"FENGYUN 2G","OBJECT_ID":"2014-090A","EPOCH":"2026-03-04T00:49:03.399168","MEAN_MOTION":1.00274636,"ECCENTRICITY":0.0001928,"INCLINATION":5.3731,"RA_OF_ASC_NODE":74.0908,"ARG_OF_PERICENTER":152.8974,"MEAN_ANOMALY":46.7351,"EPHEMERIS_TYPE":0,"CLASSIFICATION_TYPE":"U","NORAD_CAT_ID":40367,"ELEMENT_SET_NO":999,"REV_AT_EPOCH":4094,"BSTAR":0,"MEAN_MOTION_DOT":-3.13e-6,"MEAN_MOTION_DDOT":0}]
